GLOBAL-15               
1 49470U 21106B   23273.61627796  .00032544  00000+0  79126-3 0  9990
2 49470  42.0045 355.6527 0016537  20.7758 339.3752 15.40203496105030
GAOFEN-3 02             
1 49495U 21109A   23273.74637346  .00000138  00000+0  55172-4 0  9996
2 49495  98.4161 279.6691 0001973  75.1476 284.9932 14.42208295 97552
GLOBAL-12               
1 49772U 21115BA  23273.06741487  .00027522  00000+0  71741-3 0  9993
2 49772  53.2103  37.0016 0011811 286.9914  72.9797 15.38608994103124
GLOBAL-13               
1 49773U 21115BB  23273.75496211  .00029186  00000+0  75218-3 0  9993
2 49773  53.2109  34.9667 0008409 278.7668  81.2385 15.38959580103219
2021-117A               
1 49812U 21117A   23273.71992244  .00024785  00000+0  48788-3 0  9994
2 49812  97.3405 355.8961 0008237  90.1533 270.0661 15.47202116101599
JINZIJING 1 03          
1 49813U 21117B   23273.73566129  .00076233  00000+0  12162-2 0  9997
2 49813  97.3351 354.2258 0006748  91.7642 268.4384 15.52934616101502
GLOBAL-17               
1 49949U 21120A   23272.56483747  .00028166  00000+0  71259-3 0  9990
2 49949  42.0061  87.1076 0020892 258.0900 101.7597 15.38967583102024
GLOBAL-16               
1 49950U 21120B   23273.51121790  .00026274  00000+0  66356-3 0  9995
2 49950  42.0066  81.2008 0021571 269.5471  90.2897 15.39035112102161
XW-3 (CAS-9)            
1 50466U 21131B   23273.72078696  .00000863  00000+0  29363-3 0  9993
2 50466  98.5467 354.9213 0004448 170.3400 189.7874 14.39077747 92536
UMBRA-02                
1 50986U 22002C   23273.17409964  .00035611  00000+0  18672-2 0  9992
2 50986  97.4303 337.8552 0003576 249.0481 111.0369 15.15668432 94632
TEVEL-3                 
1 50988U 22002E   23273.72565535  .00034465  00000+0  11835-2 0  9992
2 50988  97.4224 340.2509 0006562 210.6861 149.3997 15.30031159 94874
TEVEL-8                 
1 50989U 22002F   23273.74931848  .00033754  00000+0  11620-2 0  9991
2 50989  97.4238 340.3452 0006584 210.3126 149.7735 15.29954329 94878
ION SCV-004             
1 50993U 22002K   23273.13278470  .00005382  00000+0  28851-3 0  9995
2 50993  97.4275 334.9273 0007619 221.3963 138.6693 15.15374618 94440
TEVEL-5                 
1 50998U 22002Q   23273.67195043  .00036497  00000+0  12123-2 0  9998
2 50998  97.4218 340.7215 0007647 206.5174 153.5677 15.31089556 94904
TEVEL-6                 
1 50999U 22002R   23273.73595649  .00035879  00000+0  11920-2 0  9999
2 50999  97.4216 340.7775 0007683 205.8841 154.2016 15.31087016 94912
TEVEL-1                 
1 51013U 22002AF  23273.73906924  .00033917  00000+0  11669-2 0  9990
2 51013  97.4214 340.1882 0006468 210.8141 149.2721 15.29973377 94873
GRIZU-263A              
1 51025U 22002AT  23273.70199686  .03150889  27914-1  35992-2 0  9990
2 51025  97.4183 351.5165 0011761 274.4569  85.5373 16.14249351 95524
SANOSAT-1               
1 51031U 22002AZ  23273.64461616  .00077725  00000+0  17519-2 0  9999
2 51031  97.4329 344.8467 0007770 205.6047 154.4816 15.42944717 95105
IRIS-A                  
1 51044U 22002BN  23273.17560376  .00014385  00000+0  63810-3 0  9993
2 51044  97.4242 337.1223 0006794 224.4931 135.5760 15.21672223 94614
FLOCK 4X-28             
1 51045U 22002BP  23273.13336108  .00029600  00000+0  86041-3 0  9991
2 51045  97.4244 342.0358 0007711 187.1075 173.0061 15.35387539 94928
FLOCK 4X-19             
1 51046U 22002BQ  23273.17577582  .00038726  00000+0  88577-3 0  9994
2 51046  97.4254 344.0675 0004839 190.9080 169.2063 15.42707990 95048
KEPLER-19               
1 51051U 22002BV  23272.74845687  .00011943  00000+0  56530-3 0  9992
2 51051  97.4282 336.0792 0006725 231.8217 128.2412 15.19482443 94497
ETV-A1                  
1 51060U 22002CE  23273.74012959  .00006960  00000+0  35478-3 0  9992
2 51060  97.4296 336.4199 0007557 248.4349 111.6079 15.17048538 94587
BRO-5                   
1 51061U 22002CF  23273.72474347  .00006417  00000+0  31890-3 0  9995
2 51061  97.4340 337.2784 0007429 250.4132 109.6300 15.17973105 94624
TEVEL-7                 
1 51062U 22002CG  23273.74866924  .00033793  00000+0  11623-2 0  9992
2 51062  97.4233 340.3151 0006566 209.9063 150.1803 15.29983480 94878
TEVEL-4                 
1 51063U 22002CH  23273.62837214  .00031943  00000+0  11020-2 0  9996
2 51063  97.4233 340.1658 0006541 210.0955 149.9911 15.29896683 94857
TEVEL-2                 
1 51069U 22002CP  23273.72703350  .00034691  00000+0  11909-2 0  9995
2 51069  97.4221 340.2208 0006514 210.6506 149.4355 15.30039735 94878
DELFI-PQ                
1 51074U 22002CU  23273.76113123  .00104414  00000+0  19407-2 0  9990
2 51074  97.4473 348.2292 0007715 227.6621 132.3977 15.48493955 95266
VZLUSAT-2               
1 51085U 22002DF  23273.68798910  .00011070  00000+0  52190-3 0  9998
2 51085  97.4273 336.7655 0011236 241.2395 118.7712 15.19603716 94613
L-SAR 01A               
1 51284U 22007A   23273.72734618  .00001282  00000+0  14415-3 0  9996
2 51284  97.8116 279.3622 0001572  91.1763 268.9634 14.88408729 91141
INSPIRESAT-1            
1 51657U 22013B   23273.02651293  .00008197  00000+0  38399-3 0  9996
2 51657  97.5464 284.0512 0010353  16.2177 343.9387 15.19927726 89822
INS-2TD                 
1 51658U 22013C   23273.01632668  .00024521  00000+0  94551-3 0  9992
2 51658  97.5444 285.9521 0008780  17.0096 343.1435 15.26274251 89957
L-SAR 01B               
1 51822U 22018A   23273.76085032  .00001332  00000+0  14959-3 0  9998
2 51822  97.8111 279.3585 0001456  93.6776 266.4608 14.88406215 86386
2022-019D               
1 51827U 22019D   23273.71814920  .00009505  00000+0  49917-3 0  9997
2 51827  97.4658 344.4098 0015927  71.1384 289.1574 15.15814299 87718
2022-019G               
1 51830U 22019G   23273.71054576  .00029202  00000+0  11802-2 0  9991
2 51830  97.4611 346.8956 0013436  67.2883 292.9773 15.24616621 87894
JILIN-1 GAOFEN 03D14    
1 51831U 22019H   23273.72529358  .00013441  00000+0  65515-3 0  9997
2 51831  97.4653 345.4384 0019356  67.9294 292.3993 15.18286855 87782
2022-019J               
1 51832U 22019J   23273.76540150  .00002838  00000+0  16537-3 0  9993
2 51832  97.4654 343.5398 0011511  79.7732 280.4796 15.12748250 87663
JILIN-1 GAOFEN 03D16    
1 51834U 22019L   23273.72010116  .00013011  00000+0  63515-3 0  9998
2 51834  97.4656 345.4719 0016420  77.8835 282.4238 15.18286816 87789
JILIN-1 GAOFEN 03D11    
1 51835U 22019M   23273.71475661  .00012439  00000+0  60862-3 0  9993
2 51835  97.4656 345.4786 0017102  71.5573 288.7518 15.18208984 87782
JILIN-1 GAOFEN 03D17    
1 51838U 22019Q   23273.74660272  .00014920  00000+0  72256-3 0  9990
2 51838  97.4650 345.6827 0014217  74.8423 285.4383 15.18562554 87804
JILIN-1 GAOFEN 03D15    
1 51839U 22019R   23273.76517950  .00012949  00000+0  63424-3 0  9993
2 51839  97.4636 345.4273 0011587  66.3468 293.8981 15.18233670 87793
JILIN-1 GAOFEN 03D10    
1 51840U 22019S   23273.74949287  .00013689  00000+0  66852-3 0  9995
2 51840  97.4651 345.5392 0014502  67.0718 293.2045 15.18287848 87792
JILIN-1 GAOFEN 03D12    
1 51841U 22019T   23273.74303909  .00013278  00000+0  64935-3 0  9995
2 51841  97.4641 345.4758 0014781  66.3287 293.9497 15.18243783 87797
JILIN-1 GAOFEN 03D18    
1 51844U 22019W   23273.73238998  .00014168  00000+0  68973-3 0  9997
2 51844  97.4633 345.2878 0020900  69.7126 290.6352 15.18287148 87686
2022-023F               
1 51951U 22023F   23273.74897504  .00030257  00000+0  13644-2 0  9997
2 51951  63.4757  37.2993 0071221 343.4500  16.4288 15.18623502 87333
NOOR-2                  
1 51954U 22024A   23273.69507039  .00042875  00000+0  10199-2 0  9997
2 51954  58.2806 345.6622 0018284  34.1799 326.0443 15.41164349 87330
ORESAT0                 
1 52017U 22026K   23272.96886940  .00029883  00000+0  10502-2 0  9992
2 52017  97.5106 275.9831 0022847  77.2606 283.1186 15.29074851 85533
CZ-4C R/B               
1 52085U 22027B   23273.77455102 -.00000034  00000+0  69311-4 0  9992
2 52085  63.3983 174.1926 0145935  30.1254 330.8075 13.65358607 76807
MERIDIAN 10             
1 52145U 22030A   23271.98221980  .00000004  00000+0  00000+0 0  9990
2 52145  62.6596 248.4943 6975490 273.2757  15.9003  2.00623557 11123
OMNI-L1                 
1 52157U 22033A   23273.72274416 -.00000357  00000+0 -38447-4 0  9996
2 52157  97.9139 354.9362 0011718 283.6000  76.3907 14.81745036 80895
ENMAP                   
1 52159U 22033C   23273.71342843  .00001000  00000+0  15603-3 0  9999
2 52159  97.9785 354.1917 0003430 342.4211  17.6878 14.75017191 80647
ALFACRUX                
1 52160U 22033D   23273.19591296  .00054281  00000+0  12050-2 0  9992
2 52160  97.3483 355.4881 0006577 161.5002 198.6487 15.43511542 83481
ARCSAT-1                
1 52161U 22033E   23273.21361865  .00006675  00000+0  24675-3 0  9994
2 52161  97.3499 351.2153 0008911 161.4703 198.6862 15.28004555 83207
ION SCV-005             
1 52163U 22033G   23273.74555834  .00247130  22144-4  92079-3 0  9999
2 52163  97.3482  14.3143 0092551 161.2388 199.2330 15.81306912 84734
MP42                    
1 52169U 22033N   23273.19603112  .00025555  00000+0  75345-3 0  9991
2 52169  97.3490 353.7457 0009658 145.3938 214.7936 15.34951361 83373
SHAKUNTALA              
1 52173U 22033S   23273.66272533  .00098833  00000+0  14909-2 0  9994
2 52173  97.3537 359.4809 0006517 140.3300 219.8432 15.54400599 83778
BRO-7                   
1 52174U 22033T   23273.76443686  .00021230  00000+0  70726-3 0  9992
2 52174  97.3501 353.5824 0012378 137.0129 223.2082 15.31060201 83414
BDSAT                   
1 52175U 22033U   23273.21803892  .00061443  00000+0  11986-2 0  9994
2 52175  97.3488 357.2669 0008411 131.1332 229.0645 15.47265415 83602
SUCHAI-3                
1 52191U 22033AL  23273.21431124  .00043211  00000+0  11151-2 0  9994
2 52191  97.3588 354.8524 0008186 125.3896 234.8115 15.39000230 83400
